STARLINK-30131
1 56833U 23079L   26090.00706365  .00026409  00000+0  11515-2 0  9995
2 56833  43.0018 321.6718 0001542 253.6890 106.3790 15.21692017156435
